{
  "type": "FeatureCollection",
  "features": [
    {
      "type": "Feature",
      "properties": {
        "norad_id": 33412,
        "name": "COSMO-SKYMED 3",
        "group": "resource",
        "lat": 65.8104465719734,
        "lon": 177.09788346889204,
        "alt_km": 548.6043231945241,
        "timestamp": "2025-12-10T14:53:36.779328+00:00",
        "meta_object_name": "COSMO-SKYMED 3",
        "meta_object_id": "2008-054A",
        "meta_epoch": "2025-12-10T06:37:09.416352",
        "meta_mean_motion": 15.05312611,
        "meta_eccentricity": 0.00158639,
        "meta_inclination": 97.8462,
        "meta_ra_of_asc_node": 194.6254,
        "meta_arg_of_pericenter": 182.3755,
        "meta_mean_anomaly": 177.7398,
        "meta_ephemeris_type": 0,
        "meta_classification_type": "U",
        "meta_norad_cat_id": 33412,
        "meta_element_set_no": 999,
        "meta_rev_at_epoch": 92850,
        "meta_bstar": 0.00042725758,
        "meta_mean_motion_dot": 6.067e-05,
        "meta_mean_motion_ddot": 0,
        "tle_line1": "1 33412U 08054A   25344.27580343  .00006067  00000+0  42726-3 0  9992",
        "tle_line2": "2 33412  97.8462 194.6254 0015863 182.3755 177.7398 15.05312611928507"
      },
      "geometry": {
        "type": "Point",
        "coordinates": [
          177.09788346889204,
          65.8104465719734
        ]
      }
    },
    {
      "type": "Feature",
      "properties": {
        "norad_id": 33446,
        "name": "YAOGAN-4",
        "group": "resource",
        "lat": -40.67685188791706,
        "lon": 87.87087751680698,
        "alt_km": 630.6871505918198,
        "timestamp": "2025-12-10T14:53:36.779337+00:00",
        "meta_object_name": "YAOGAN-4",
        "meta_object_id": "2008-061A",
        "meta_epoch": "2025-12-10T07:25:11.200224",
        "meta_mean_motion": 14.82670816,
        "meta_eccentricity": 0.00137789,
        "meta_inclination": 97.918,
        "meta_ra_of_asc_node": 274.4323,
        "meta_arg_of_pericenter": 331.6323,
        "meta_mean_anomaly": 28.4138,
        "meta_ephemeris_type": 0,
        "meta_classification_type": "U",
        "meta_norad_cat_id": 33446,
        "meta_element_set_no": 999,
        "meta_rev_at_epoch": 91767,
        "meta_bstar": 0.0003148175,
        "meta_mean_motion_dot": 2.489e-05,
        "meta_mean_motion_ddot": 0,
        "tle_line1": "1 33446U 08061A   25344.30915741  .00002489  00000+0  31482-3 0  9996",
        "tle_line2": "2 33446  97.9180 274.4323 0013778 331.6323  28.4138 14.82670816917677"
      },
      "geometry": {
        "type": "Point",
        "coordinates": [
          87.87087751680698,
          -40.67685188791706
        ]
      }
    },
    {
      "type": "Feature",
      "properties": {
        "norad_id": 33492,
        "name": "GOSAT (IBUKI)",
        "group": "resource",
        "lat": 28.035455528832017,
        "lon": 88.91661791078633,
        "alt_km": 667.3607481111403,
        "timestamp": "2025-12-10T14:53:36.779347+00:00",
        "meta_object_name": "GOSAT (IBUKI)",
        "meta_object_id": "2009-002A",
        "meta_epoch": "2025-12-10T06:34:58.842624",
        "meta_mean_motion": 14.6754762,
        "meta_eccentricity": 9.441e-05,
        "meta_inclination": 98.0768,
        "meta_ra_of_asc_node": 92.9119,
        "meta_arg_of_pericenter": 89.0594,
        "meta_mean_anomaly": 271.0719,
        "meta_ephemeris_type": 0,
        "meta_classification_type": "U",
        "meta_norad_cat_id": 33492,
        "meta_element_set_no": 999,
        "meta_rev_at_epoch": 90375,
        "meta_bstar": 0.00027074921,
        "meta_mean_motion_dot": 1.488e-05,
        "meta_mean_motion_ddot": 0,
        "tle_line1": "1 33492U 09002A   25344.27429216  .00001488  00000+0  27075-3 0  9997",
        "tle_line2": "2 33492  98.0768  92.9119 0000944  89.0594 271.0719 14.67547620903757"
      },
      "geometry": {
        "type": "Point",
        "coordinates": [
          88.91661791078633,
          28.035455528832017
        ]
      }
    },
    {
      "type": "Feature",
      "properties": {
        "norad_id": 35681,
        "name": "DEIMOS-1",
        "group": "resource",
        "lat": 49.22352041098268,
        "lon": 136.27901638735094,
        "alt_km": 639.2534662829403,
        "timestamp": "2025-12-10T14:53:36.779357+00:00",
        "meta_object_name": "DEIMOS-1",
        "meta_object_id": "2009-041A",
        "meta_epoch": "2025-12-10T06:31:39.347616",
        "meta_mean_motion": 14.74945249,
        "meta_eccentricity": 0.00027547,
        "meta_inclination": 97.7149,
        "meta_ra_of_asc_node": 144.99,
        "meta_arg_of_pericenter": 83.6616,
        "meta_mean_anomaly": 276.4907,
        "meta_ephemeris_type": 0,
        "meta_classification_type": "U",
        "meta_norad_cat_id": 35681,
        "meta_element_set_no": 999,
        "meta_rev_at_epoch": 87903,
        "meta_bstar": 0.00012954051,
        "meta_mean_motion_dot": 8.23e-06,
        "meta_mean_motion_ddot": 0,
        "tle_line1": "1 35681U 09041A   25344.27198319  .00000823  00000+0  12954-3 0  9991",
        "tle_line2": "2 35681  97.7149 144.9900 0002754  83.6616 276.4907 14.74945249879038"
      },
      "geometry": {
        "type": "Point",
        "coordinates": [
          136.27901638735094,
          49.22352041098268
        ]
      }
    },
    {
      "type": "Feature",
      "properties": {
        "norad_id": 35682,
        "name": "DUBAISAT-1",
        "group": "resource",
        "lat": -12.527664613598603,
        "lon": 117.1174809188239,
        "alt_km": 644.7508523351471,
        "timestamp": "2025-12-10T14:53:36.779366+00:00",
        "meta_object_name": "DUBAISAT-1",
        "meta_object_id": "2009-041B",
        "meta_epoch": "2025-12-10T06:48:28.596384",
        "meta_mean_motion": 14.74593356,
        "meta_eccentricity": 0.0009733,
        "meta_inclination": 97.9789,
        "meta_ra_of_asc_node": 114.9997,
        "meta_arg_of_pericenter": 323.0595,
        "meta_mean_anomaly": 36.9943,
        "meta_ephemeris_type": 0,
        "meta_classification_type": "U",
        "meta_norad_cat_id": 35682,
        "meta_element_set_no": 999,
        "meta_rev_at_epoch": 87725,
        "meta_bstar": 0.00035029712,
        "meta_mean_motion_dot": 2.285e-05,
        "meta_mean_motion_ddot": 0,
        "tle_line1": "1 35682U 09041B   25344.28366431  .00002285  00000+0  35030-3 0  9999",
        "tle_line2": "2 35682  97.9789 114.9997 0009733 323.0595  36.9943 14.74593356877254"
      },
      "geometry": {
        "type": "Point",
        "coordinates": [
          117.1174809188239,
          -12.527664613598603
        ]
      }
    },
    {
      "type": "Feature",
      "properties": {
        "norad_id": 35931,
        "name": "OCEANSAT-2",
        "group": "resource",
        "lat": 15.757884978105999,
        "lon": -16.902166593923113,
        "alt_km": 885.9593280948884,
        "timestamp": "2025-12-10T14:53:36.779376+00:00",
        "meta_object_name": "OCEANSAT-2",
        "meta_object_id": "2009-051A",
        "meta_epoch": "2025-12-10T07:57:18.176832",
        "meta_mean_motion": 13.99625194,
        "meta_eccentricity": 0.0016304,
        "meta_inclination": 98.2224,
        "meta_ra_of_asc_node": 345.1764,
        "meta_arg_of_pericenter": 51.3482,
        "meta_mean_anomaly": 308.9141,
        "meta_ephemeris_type": 0,
        "meta_classification_type": "U",
        "meta_norad_cat_id": 35931,
        "meta_element_set_no": 999,
        "meta_rev_at_epoch": 85291,
        "meta_bstar": -7.2969583e-05,
        "meta_mean_motion_dot": -1.44e-06,
        "meta_mean_motion_ddot": 0,
        "tle_line1": "1 35931U 09051A   25344.33146038 -.00000144  00000+0 -72970-4 0  9991",
        "tle_line2": "2 35931  98.2224 345.1764 0016304  51.3482 308.9141 13.99625194852917"
      },
      "geometry": {
        "type": "Point",
        "coordinates": [
          -16.902166593923113,
          15.757884978105999
        ]
      }
    },
    {
      "type": "Feature",
      "properties": {
        "norad_id": 35946,
        "name": "WORLDVIEW-2 (WV-2)",
        "group": "resource",
        "lat": -27.24066848209986,
        "lon": -128.66893368734793,
        "alt_km": 774.7206072262989,
        "timestamp": "2025-12-10T14:53:36.779386+00:00",
        "meta_object_name": "WORLDVIEW-2 (WV-2)",
        "meta_object_id": "2009-055A",
        "meta_epoch": "2025-12-10T07:15:02.106144",
        "meta_mean_motion": 14.37651126,
        "meta_eccentricity": 0.00053435,
        "meta_inclination": 98.4762,
        "meta_ra_of_asc_node": 55.4202,
        "meta_arg_of_pericenter": 72.8448,
        "meta_mean_anomaly": 287.3323,
        "meta_ephemeris_type": 0,
        "meta_classification_type": "U",
        "meta_norad_cat_id": 35946,
        "meta_element_set_no": 999,
        "meta_rev_at_epoch": 84850,
        "meta_bstar": 0.00011608695,
        "meta_mean_motion_dot": 3.05e-06,
        "meta_mean_motion_ddot": 0,
        "tle_line1": "1 35946U 09055A   25344.30210771  .00000305  00000+0  11609-3 0  9992",
        "tle_line2": "2 35946  98.4762  55.4202 0005343  72.8448 287.3323 14.37651126848500"
      },
      "geometry": {
        "type": "Point",
        "coordinates": [
          -128.66893368734793,
          -27.24066848209986
        ]
      }
    }
  ]
}